<?xml version="1.0" encoding="UTF-8"?>
<gpx version="1.1" creator="Trace QA"
     xmlns="http://www.topografix.com/GPX/1/1"
     xmlns:xsi="http://www.w3.org/2001/XMLSchema-instance"
     xsi:schemaLocation="http://www.topografix.com/GPX/1/1 http://www.topografix.com/GPX/1/1/gpx.xsd">
  <!-- pace-definition QA: 0-300m 빠름(100m/6s) -> 300-450m 느림(25m/6s, 현재 페이스가 확 나빠짐)
       -> 450-1000m 다시 빠름(1km 지점에서 음성 안내) -> 1000-1200m 빠름 유지.
       총 132초. 끝에서 30초 정지해 Xcode가 되감기 전에 QA를 마칠 수 있게 한다. -->
  <wpt lat="37.566500" lon="126.978000"><time>2026-01-01T00:00:00Z</time></wpt>
  <wpt lat="37.567398" lon="126.978000"><time>2026-01-01T00:00:06Z</time></wpt>
  <wpt lat="37.568296" lon="126.978000"><time>2026-01-01T00:00:12Z</time></wpt>
  <wpt lat="37.569194" lon="126.978000"><time>2026-01-01T00:00:18Z</time></wpt>
  <wpt lat="37.569418" lon="126.978000"><time>2026-01-01T00:00:24Z</time></wpt>
  <wpt lat="37.569643" lon="126.978000"><time>2026-01-01T00:00:30Z</time></wpt>
  <wpt lat="37.569868" lon="126.978000"><time>2026-01-01T00:00:36Z</time></wpt>
  <wpt lat="37.570092" lon="126.978000"><time>2026-01-01T00:00:42Z</time></wpt>
  <wpt lat="37.570316" lon="126.978000"><time>2026-01-01T00:00:48Z</time></wpt>
  <wpt lat="37.570541" lon="126.978000"><time>2026-01-01T00:00:54Z</time></wpt>
  <wpt lat="37.571439" lon="126.978000"><time>2026-01-01T00:01:00Z</time></wpt>
  <wpt lat="37.572337" lon="126.978000"><time>2026-01-01T00:01:06Z</time></wpt>
  <wpt lat="37.573235" lon="126.978000"><time>2026-01-01T00:01:12Z</time></wpt>
  <wpt lat="37.574133" lon="126.978000"><time>2026-01-01T00:01:18Z</time></wpt>
  <wpt lat="37.575031" lon="126.978000"><time>2026-01-01T00:01:24Z</time></wpt>
  <wpt lat="37.575929" lon="126.978000"><time>2026-01-01T00:01:30Z</time></wpt>
  <wpt lat="37.576827" lon="126.978000"><time>2026-01-01T00:01:36Z</time></wpt>
  <wpt lat="37.577725" lon="126.978000"><time>2026-01-01T00:01:42Z</time></wpt>
  <wpt lat="37.577725" lon="126.978000"><time>2026-01-01T00:01:48Z</time></wpt>
  <wpt lat="37.577725" lon="126.978000"><time>2026-01-01T00:01:54Z</time></wpt>
  <wpt lat="37.577725" lon="126.978000"><time>2026-01-01T00:02:00Z</time></wpt>
  <wpt lat="37.577725" lon="126.978000"><time>2026-01-01T00:02:06Z</time></wpt>
  <wpt lat="37.577725" lon="126.978000"><time>2026-01-01T00:02:12Z</time></wpt>
</gpx>
